[{"OBJECT_NAME":"STARLINK-31938","OBJECT_ID":"2024-098H","EPOCH":"2026-03-09T14:04:29.216928","MEAN_MOTION":15.27575057,"ECCENTRICITY":0.0002368,"INCLINATION":43.0016,"RA_OF_ASC_NODE":278.2884,"ARG_OF_PERICENTER":258.0482,"MEAN_ANOMALY":102.0104,"EPHEMERIS_TYPE":0,"CLASSIFICATION_TYPE":"U","NORAD_CAT_ID":59865,"ELEMENT_SET_NO":999,"REV_AT_EPOCH":10183,"BSTAR":0.00020509,"MEAN_MOTION_DOT":5.385e-5,"MEAN_MOTION_DDOT":0},{"OBJECT_NAME":"TRANSPORTER-12 OBJECT AZ","OBJECT_ID":"2025-009AZ","EPOCH":"2026-03-09T17:02:46.667040","MEAN_MOTION":15.30349724,"ECCENTRICITY":9.87e-5,"INCLINATION":97.3981,"RA_OF_ASC_NODE":151.9913,"ARG_OF_PERICENTER":45.3581,"MEAN_ANOMALY":314.774,"EPHEMERIS_TYPE":0,"CLASSIFICATION_TYPE":"U","NORAD_CAT_ID":62656,"ELEMENT_SET_NO":999,"REV_AT_EPOCH":6379,"BSTAR":0.00054902545,"MEAN_MOTION_DOT":0.00016057,"MEAN_MOTION_DDOT":0}]
